IRIDIUM 150             
1 43257U 18030J   25252.88800224  .00000018  00000+0 -79685-6 0  9991
2 43257  86.3946  47.6238 0002384  90.6457 269.5012 14.34217644389985
IRIDIUM 143             
1 43258U 18030K   25253.42712542  .00000223  00000+0  72503-4 0  9995
2 43258  86.3954  47.4801 0002647  89.0850 271.0650 14.34217934389999
IRIDIUM 161             
1 43478U 18047C   25253.28041019  .00000371  00000+0  10444-3 0  9994
2 43478  86.4530 205.3787 0002128  86.7854 273.3590 14.43277447384767
IRIDIUM 152             
1 43479U 18047D   25253.33007346  .00000266  00000+0  87879-4 0  9996
2 43479  86.4005 205.2189 0002202  89.3850 270.7598 14.34216793382379
IRIDIUM 147             
1 43480U 18047E   25253.33641522  .00000376  00000+0  12736-3 0  9999
2 43480  86.4007 205.2163 0002175  82.2485 277.8958 14.34216842382373
IRIDIUM 110             
1 43481U 18047F   25253.41252533 -.00000007  00000+0 -94738-5 0  9996
2 43481  86.4010 205.2693 0001688  88.8637 271.2753 14.34218340382371
IRIDIUM 162             
1 43482U 18047G   25253.27409503  .00000355  00000+0  99446-4 0  9996
2 43482  86.4526 205.2752 0002139  91.1460 268.9986 14.43275571384757
IRIDIUM 160             
1 43569U 18061A   25253.07928805  .00000245  00000+0  80587-4 0  9991
2 43569  86.4047 173.8502 0001953  83.5489 276.5929 14.34217396373226
